{
    "links": {
        "self": "http://www.neowsapp.com/rest/v1/neo/3422138?api_key=iIulBulltgU6a56xZRHN4H3l9WmuAYTsLGpBGhQ2"
    },
    "id": "3422138",
    "neo_reference_id": "3422138",
    "name": "(2008 OA6)",
    "designation": "2008 OA6",
    "nasa_jpl_url": "http://ssd.jpl.nasa.gov/sbdb.cgi?sstr=3422138",
    "absolute_magnitude_h": 22.7,
    "estimated_diameter": {
        "kilometers": {
            "estimated_diameter_min": 0.0766575574,
            "estimated_diameter_max": 0.1714115092
        },
        "meters": {
            "estimated_diameter_min": 76.6575573531,
            "estimated_diameter_max": 171.4115092306
        },
        "miles": {
            "estimated_diameter_min": 0.0476327831,
            "estimated_diameter_max": 0.1065101409
        },
        "feet": {
            "estimated_diameter_min": 251.5011804664,
            "estimated_diameter_max": 562.3737359442
        }
    },
    "is_potentially_hazardous_asteroid": false,
    "close_approach_data": [
        {
            "close_approach_date": "2008-07-09",
            "close_approach_date_full": "2008-Jul-09 01:18",
            "epoch_date_close_approach": 1215566280000,
            "relative_velocity": {
                "kilometers_per_second": "7.4729149441",
                "kilometers_per_hour": "26902.4937989386",
                "miles_per_hour": "16716.1634385683"
            },
            "miss_distance": {
                "astronomical": "0.1021324598",
                "lunar": "39.7295268622",
                "kilometers": "15278798.443940626",
                "miles": "9493805.1194715988"
            },
            "orbiting_body": "Earth"
        }
    ],
    "orbital_data": {
        "orbit_id": "12",
        "orbit_determination_date": "2017-04-06 09:03:11",
        "first_observation_date": "2008-07-29",
        "last_observation_date": "2008-08-25",
        "data_arc_in_days": 27,
        "observations_used": 32,
        "orbit_uncertainty": "7",
        "minimum_orbit_intersection": ".0874848",
        "jupiter_tisserand_invariant": "3.526",
        "epoch_osculation": "2459000.5",
        "eccentricity": ".5032469080170975",
        "semi_major_axis": "2.139788915142596",
        "inclination": "9.080202400017189",
        "ascending_node_longitude": "133.868003573878",
        "orbital_period": "1143.285846113704",
        "perihelion_distance": "1.062946759787825",
        "perihelion_argument": "140.9596393706234",
        "aphelion_distance": "3.216631070497367",
        "perihelion_time": "2459220.777905144767",
        "mean_anomaly": "290.6384784507957",
        "mean_motion": ".3148818829724204",
        "equinox": "J2000",
        "orbit_class": {
            "orbit_class_type": "AMO",
            "orbit_class_description": "Near-Earth asteroid orbits similar to that of 1221 Amor",
            "orbit_class_range": "1.017 AU < q (perihelion) < 1.3 AU"
        }
    },
    "is_sentry_object": false
}